GLOBALSTAR M094         
1 39074U 13005C   25101.89964152 -.00000103  00000+0  70426-5 0  9993
2 39074  51.9986  23.9400 0000857  89.7635 270.3330 12.62269544564003
GLOBALSTAR M096         
1 39075U 13005D   25101.59616904 -.00000107  00000+0 -16194-4 0  9996
2 39075  52.0070  73.3259 0000666  81.9634 278.1308 12.62270079562882
GLOBALSTAR M078         
1 39076U 13005E   25101.88606369 -.00000003  00000+0  56502-3 0  9993
2 39076  51.9856 157.0444 0001048  53.8377 306.2586 12.62261543561545
GLOBALSTAR M095         
1 39077U 13005F   25101.83352343 -.00000065  00000+0  21486-3 0  9990
2 39077  51.9781 154.4357 0000799  87.6272 272.4686 12.62268911561392
GLOBALSTAR M087         
1 52888U 22064A   25101.86415978 -.00000078  00000+0  14248-3 0  9999
2 52888  51.9793 295.7461 0000946  93.0358 267.0617 12.62270790136665
